[{"OBJECT_NAME":"STARLINK-34940","OBJECT_ID":"2025-191U","EPOCH":"2026-03-09T15:29:16.817856","MEAN_MOTION":15.05659637,"ECCENTRICITY":0.0001938,"INCLINATION":97.6,"RA_OF_ASC_NODE":301.493,"ARG_OF_PERICENTER":95.4795,"MEAN_ANOMALY":264.6653,"EPHEMERIS_TYPE":0,"CLASSIFICATION_TYPE":"U","NORAD_CAT_ID":65397,"ELEMENT_SET_NO":999,"REV_AT_EPOCH":3026,"BSTAR":-0.00019231,"MEAN_MOTION_DOT":-2.835e-5,"MEAN_MOTION_DDOT":0},{"OBJECT_NAME":"COSMOS 2251 DEB","OBJECT_ID":"1993-036AJC","EPOCH":"2026-03-07T22:08:36.037248","MEAN_MOTION":15.09712263,"ECCENTRICITY":0.00171889,"INCLINATION":73.9945,"RA_OF_ASC_NODE":155.7464,"ARG_OF_PERICENTER":279.7001,"MEAN_ANOMALY":80.2249,"EPHEMERIS_TYPE":0,"CLASSIFICATION_TYPE":"U","NORAD_CAT_ID":35073,"ELEMENT_SET_NO":999,"REV_AT_EPOCH":68760,"BSTAR":0.00527522,"MEAN_MOTION_DOT":0.00086343,"MEAN_MOTION_DDOT":0}]
